[
    {
        "Altitude(m)": 717179.2855106862,
        "Argument of Periapsis(deg)": 0.010251109067964361,
        "Eccentricity": 0.0,
        "Inclination(deg)": 45.0,
        "Latitude(deg)": -43.44584585340075,
        "Longitude(deg)": 9.71215329945096,
        "Mean Anomaly(deg)": -104.16560501726725,
        "RAAN(deg)": 219.9903232526876,
        "Satellite Name": "Constellation 1 983",
        "Satellite Number": 983,
        "Semi-Major Axis(m)": 7083131.272910544,
        "Time(s)": 171
    },
    {
        "Altitude(m)": 717185.2149704384,
        "Argument of Periapsis(deg)": 0.010311057074209765,
        "Eccentricity": 0.0,
        "Inclination(deg)": 45.0,
        "Latitude(deg)": -43.460203665284354,
        "Longitude(deg)": 9.788886166561031,
        "Mean Anomaly(deg)": -104.1049038770174,
        "RAAN(deg)": 219.99026666352205,
        "Satellite Name": "Constellation 1 983",
        "Satellite Number": 983,
        "Semi-Major Axis(m)": 7083131.272910544,
        "Time(s)": 172
    },
    {
        "Altitude(m)": 717191.1205980986,
        "Argument of Periapsis(deg)": 0.010371005080455171,
        "Eccentricity": 0.0,
        "Inclination(deg)": 45.0,
        "Latitude(deg)": -43.47450427354397,
        "Longitude(deg)": 9.865657137358625,
        "Mean Anomaly(deg)": -104.04420273676746,
        "RAAN(deg)": 219.99021007435647,
        "Satellite Name": "Constellation 1 983",
        "Satellite Number": 983,
        "Semi-Major Axis(m)": 7083131.272910544,
        "Time(s)": 173
    },
    {
        "Altitude(m)": 717197.0023719168,
        "Argument of Periapsis(deg)": 0.010430953086700577,
        "Eccentricity": 0.0,
        "Inclination(deg)": 45.0,
        "Latitude(deg)": -43.488747623339194,
        "Longitude(deg)": 9.942466096613469,
        "Mean Anomaly(deg)": -103.98350159651758,
        "RAAN(deg)": 219.99015348519092,
        "Satellite Name": "Constellation 1 983",
        "Satellite Number": 983,
        "Semi-Major Axis(m)": 7083131.272910544,
        "Time(s)": 174
    },
    {
        "Altitude(m)": 717202.8602702261,
        "Argument of Periapsis(deg)": 0.010490901092945983,
        "Eccentricity": 0.0,
        "Inclination(deg)": 45.0,
        "Latitude(deg)": -43.50293365998386,
        "Longitude(deg)": 10.019312928550063,
        "Mean Anomaly(deg)": -103.92280045626772,
        "RAAN(deg)": 219.9900968960253,
        "Satellite Name": "Constellation 1 983",
        "Satellite Number": 983,
        "Semi-Major Axis(m)": 7083131.272910544,
        "Time(s)": 175
    },
    {
        "Altitude(m)": 717208.6942714392,
        "Argument of Periapsis(deg)": 0.010550849099191389,
        "Eccentricity": 0.0,
        "Inclination(deg)": 45.0,
        "Latitude(deg)": -43.517062328946906,
        "Longitude(deg)": 10.096197516847809,
        "Mean Anomaly(deg)": -103.86209931601776,
        "RAAN(deg)": 219.99004030685975,
        "Satellite Name": "Constellation 1 983",
        "Satellite Number": 983,
        "Semi-Major Axis(m)": 7083131.272910544,
        "Time(s)": 176
    },
    {
        "Altitude(m)": 717214.5043540674,
        "Argument of Periapsis(deg)": 0.010610797105436795,
        "Eccentricity": 0.0,
        "Inclination(deg)": 45.0,
        "Latitude(deg)": -43.53113357585315,
        "Longitude(deg)": 10.173119744641413,
        "Mean Anomaly(deg)": -103.80139817576793,
        "RAAN(deg)": 219.9899837176942,
        "Satellite Name": "Constellation 1 983",
        "Satellite Number": 983,
        "Semi-Major Axis(m)": 7083131.272910544,
        "Time(s)": 177
    },
    {
        "Altitude(m)": 717220.2904967014,
        "Argument of Periapsis(deg)": 0.0106707451116822,
        "Eccentricity": 0.0,
        "Inclination(deg)": 45.0,
        "Latitude(deg)": -43.54514734648471,
        "Longitude(deg)": 10.250079326425414,
        "Mean Anomaly(deg)": -103.74069703551793,
        "RAAN(deg)": 219.98992712852862,
        "Satellite Name": "Constellation 1 983",
        "Satellite Number": 983,
        "Semi-Major Axis(m)": 7083131.272910544,
        "Time(s)": 178
    },
    {
        "Altitude(m)": 717226.0526780256,
        "Argument of Periapsis(deg)": 0.010730693117927606,
        "Eccentricity": 0.0,
        "Inclination(deg)": 45.0,
        "Latitude(deg)": -43.55910358678044,
        "Longitude(deg)": 10.327076480441812,
        "Mean Anomaly(deg)": -103.67999589526809,
        "RAAN(deg)": 219.98987053936307,
        "Satellite Name": "Constellation 1 983",
        "Satellite Number": 983,
        "Semi-Major Axis(m)": 7083131.272910544,
        "Time(s)": 179
    },
    {
        "Altitude(m)": 717231.7908768026,
        "Argument of Periapsis(deg)": 0.01079064112417301,
        "Eccentricity": 0.0,
        "Inclination(deg)": 45.0,
        "Latitude(deg)": -43.5730022428389,
        "Longitude(deg)": 10.40411092009975,
        "Mean Anomaly(deg)": -103.6192947550182,
        "RAAN(deg)": 219.98981395019746,
        "Satellite Name": "Constellation 1 983",
        "Satellite Number": 983,
        "Semi-Major Axis(m)": 7083131.272910544,
        "Time(s)": 180
    },
    {
        "Altitude(m)": 717237.5050718945,
        "Argument of Periapsis(deg)": 0.010850589130418416,
        "Eccentricity": 0.0,
        "Inclination(deg)": 45.0,
        "Latitude(deg)": -43.586843260917796,
        "Longitude(deg)": 10.48118252636372,
        "Mean Anomaly(deg)": -103.55859361476827,
        "RAAN(deg)": 219.9897573610319,
        "Satellite Name": "Constellation 1 983",
        "Satellite Number": 983,
        "Semi-Major Axis(m)": 7083131.272910544,
        "Time(s)": 181
    },
    {
        "Altitude(m)": 717243.1952422401,
        "Argument of Periapsis(deg)": 0.01091053713666382,
        "Eccentricity": 0.0,
        "Inclination(deg)": 45.0,
        "Latitude(deg)": -43.6006265874353,
        "Longitude(deg)": 10.558291179656967,
        "Mean Anomaly(deg)": -103.49789247451842,
        "RAAN(deg)": 219.98970077186635,
        "Satellite Name": "Constellation 1 983",
        "Satellite Number": 983,
        "Semi-Major Axis(m)": 7083131.272910544,
        "Time(s)": 182
    },
    {
        "Altitude(m)": 717248.8613668724,
        "Argument of Periapsis(deg)": 0.010970485142909228,
        "Eccentricity": 0.0,
        "Inclination(deg)": 45.0,
        "Latitude(deg)": -43.614352168971024,
        "Longitude(deg)": 10.63543675986319,
        "Mean Anomaly(deg)": -103.43719133426853,
        "RAAN(deg)": 219.98964418270077,
        "Satellite Name": "Constellation 1 983",
        "Satellite Number": 983,
        "Semi-Major Axis(m)": 7083131.272910544,
        "Time(s)": 183
    },
    {
        "Altitude(m)": 717254.5034249126,
        "Argument of Periapsis(deg)": 0.011030433149154634,
        "Eccentricity": 0.0,
        "Inclination(deg)": 45.0,
        "Latitude(deg)": -43.62801995226671,
        "Longitude(deg)": 10.712619146326547,
        "Mean Anomaly(deg)": -103.3764901940186,
        "RAAN(deg)": 219.98958759353522,
        "Satellite Name": "Constellation 1 983",
        "Satellite Number": 983,
        "Semi-Major Axis(m)": 7083131.272910544,
        "Time(s)": 184
    },
    {
        "Altitude(m)": 717260.1213955667,
        "Argument of Periapsis(deg)": 0.01109038115540004,
        "Eccentricity": 0.0,
        "Inclination(deg)": 45.0,
        "Latitude(deg)": -43.64162988422756,
        "Longitude(deg)": 10.789838049755524,
        "Mean Anomaly(deg)": -103.31578905376863,
        "RAAN(deg)": 219.98953100436967,
        "Satellite Name": "Constellation 1 983",
        "Satellite Number": 983,
        "Semi-Major Axis(m)": 7083131.272910544,
        "Time(s)": 185
    },
    {
        "Altitude(m)": 717265.7152581323,
        "Argument of Periapsis(deg)": 0.011150329161645444,
        "Eccentricity": 0.0,
        "Inclination(deg)": 45.0,
        "Latitude(deg)": -43.65518191192184,
        "Longitude(deg)": 10.86709368461176,
        "Mean Anomaly(deg)": -103.25508791351886,
        "RAAN(deg)": 219.98947441520406,
        "Satellite Name": "Constellation 1 983",
        "Satellite Number": 983,
        "Semi-Major Axis(m)": 7083131.272910544,
        "Time(s)": 186
    },
    {
        "Altitude(m)": 717271.2849919887,
        "Argument of Periapsis(deg)": 0.01121027716789085,
        "Eccentricity": 0.0,
        "Inclination(deg)": 45.0,
        "Latitude(deg)": -43.668675982583785,
        "Longitude(deg)": 10.944385760529748,
        "Mean Anomaly(deg)": -103.1943867732689,
        "RAAN(deg)": 219.9894178260385,
        "Satellite Name": "Constellation 1 983",
        "Satellite Number": 983,
        "Semi-Major Axis(m)": 7083131.272910544,
        "Time(s)": 187
    },
    {
        "Altitude(m)": 717276.8305766131,
        "Argument of Periapsis(deg)": 0.011270225174136258,
        "Eccentricity": 0.0,
        "Inclination(deg)": 45.0,
        "Latitude(deg)": -43.68211204361297,
        "Longitude(deg)": 11.021714154704156,
        "Mean Anomaly(deg)": -103.13368563301894,
        "RAAN(deg)": 219.98936123687292,
        "Satellite Name": "Constellation 1 983",
        "Satellite Number": 983,
        "Semi-Major Axis(m)": 7083131.272910544,
        "Time(s)": 188
    },
    {
        "Altitude(m)": 717282.3519915596,
        "Argument of Periapsis(deg)": 0.011330173180381662,
        "Eccentricity": 0.0,
        "Inclination(deg)": 45.0,
        "Latitude(deg)": -43.69549004257566,
        "Longitude(deg)": 11.099078743794275,
        "Mean Anomaly(deg)": -103.07298449276907,
        "RAAN(deg)": 219.98930464770737,
        "Satellite Name": "Constellation 1 983",
        "Satellite Number": 983,
        "Semi-Major Axis(m)": 7083131.272910544,
        "Time(s)": 189
    }
]